ONEWEB-0320             
1 49190U 21083E   24170.58385804 -.00000002  00000+0 -37064-4 0  9999
2 49190  87.9147 120.5108 0002091  81.2601 278.8768 13.18684593133953
ONEWEB-0321             
1 49191U 21083F   24170.42061212  .00000036  00000+0  57418-4 0  9997
2 49191  87.9213  59.4356 0002161  76.7495 283.3879 13.20771321140637
ONEWEB-0322             
1 49192U 21083G   24170.51608439  .00000165  00000+0  41715-3 0  9991
2 49192  87.8937 105.2854 0002407  70.9904 289.1485 13.13468233135264
ONEWEB-0324             
1 49193U 21083H   24170.56964617  .00000038  00000+0  63665-4 0  9998
2 49193  87.9145 120.4954 0001831  77.6175 282.5162 13.18686496133974
ONEWEB-0325             
1 49194U 21083J   24170.57436433 -.00000113  00000+0 -31838-3 0  9992
2 49194  87.9146 120.5086 0002187  81.8080 278.3300 13.18684913133980
ONEWEB-0326             
1 49195U 21083K   24170.58861513  .00000027  00000+0  35241-4 0  9990
2 49195  87.9144 120.5045 0001657  93.5426 266.5896 13.18685401133970
ONEWEB-0327             
1 49196U 21083L   24170.56250425  .00000080  00000+0  17033-3 0  9990
2 49196  87.9145 120.5218 0001830  91.6825 268.4517 13.18689323133999
ONEWEB-0328             
1 49197U 21083M   24170.58273995  .00000239  00000+0  61945-3 0  9997
2 49197  87.8925 105.2565 0001911  77.6323 282.5020 13.13470671135253
